GRF_resultant_treadmill_walk01_pre_control_belt0.mot
version=1
nRows=200
nColumns=19
inDegrees=yes
endheader 
time	ground_force_right_vx	ground_force_right_vy	ground_force_right_vz	ground_force_right_px	ground_force_right_py	ground_force_right_pz	ground_torque_right_x	ground_torque_right_y	ground_torque_right_z	ground_force_left_vx	ground_force_left_vy	ground_force_left_vz	ground_force_left_px	ground_force_left_py	ground_force_left_pz	ground_torque_left_x	ground_torque_left_y	ground_torque_left_z	
          2.00000000	         -0.00329157	          0.00401385	         -0.00150431	          0.18963477	          0.00000000	         -0.89728165	          0.00000000	          0.00000000	          0.00000000	         60.47917551	        912.86611776	         78.36689516	         -0.20665641	          0.00000000	         -0.99283903	          0.00000000	         -6.67374693	          0.00000000	
          2.02000000	         -0.00874477	          0.01049690	         -0.00404856	          0.19288501	          0.00000000	         -0.89648422	          0.00000000	          0.00000000	          0.00000000	         40.97001972	        903.17091948	         83.02089805	         -0.19618741	          0.00000000	         -0.99832554	          0.00000000	         -8.58174303	          0.00000000	
          2.04000000	         -0.01743145	          0.02153241	         -0.00932023	          0.19633049	          0.00000000	         -0.89501549	          0.00000000	          0.00000000	          0.00000000	         26.55363873	        800.92070431	         79.03929394	         -0.19439262	          0.00000000	         -1.00040863	          0.00000000	         -7.87037244	          0.00000000	
          2.06000000	         -0.03320676	          0.04384250	         -0.02146085	          0.19934539	          0.00000000	         -0.89329475	          0.00000000	          0.00000000	          0.00000000	         16.08889068	        743.37959437	         73.63480419	         -0.19303984	          0.00000000	         -1.00167990	          0.00000000	         -8.34575784	          0.00000000	
          2.08000000	         -0.05246237	          0.10697719	         -0.04796450	          0.20015661	          0.00000000	         -0.89230600	          0.00000000	          0.00000000	          0.00000000	          9.19803729	        715.66429034	         67.61299170	         -0.19217318	          0.00000000	         -1.00163156	          0.00000000	         -8.33752247	          0.00000000	
          2.10000000	         -0.04152218	          0.33220565	         -0.12884515	          0.19956159	          0.00000000	         -0.89158285	          0.00000000	          0.00000000	          0.00000000	         12.98246432	        722.21573701	         54.21508016	         -0.19092273	          0.00000000	         -1.00066697	          0.00000000	         -6.97809397	          0.00000000	
          2.12000000	          0.28395679	          1.18727982	         -0.36610181	          0.19834105	          0.00000000	         -0.89114368	          0.00000000	          0.00000000	          0.00000000	         28.97629920	        769.68253748	         36.79951495	         -0.18818590	          0.00000000	         -0.99974707	          0.00000000	         -3.87080695	          0.00000000	
          2.14000000	          1.93209347	          3.68426230	         -0.69866927	          0.19701935	          0.00000000	         -0.89106407	          0.00000000	          0.00000001	          0.00000000	         42.62269376	        845.84048153	         31.44453197	         -0.18342981	          0.00000000	         -0.99954621	          0.00000000	         -0.38632681	          0.00000000	
          2.16000000	          5.59244936	          7.46246287	         -0.58746468	          0.19547434	          0.00000000	         -0.89120741	          0.00000000	          0.00000007	          0.00000000	         49.40652969	        920.01271204	         36.53532865	         -0.17661897	          0.00000000	         -1.00038050	          0.00000000	          2.03890428	          0.00000000	
          2.18000000	         11.11966985	         12.29209908	          0.06088803	          0.19337137	          0.00000000	         -0.89159338	          0.00000000	          0.00000037	          0.00000000	         42.52710901	        957.59424441	         42.12971018	         -0.16797073	          0.00000000	         -1.00208970	          0.00000000	          2.41383833	          0.00000000	
          2.20000000	         14.23401379	         15.35193307	          1.07163747	          0.19012523	          0.00000000	         -0.89231678	          0.00000000	          0.00000140	          0.00000000	         20.88105196	        947.75597425	         43.67349480	         -0.15829704	          0.00000000	         -1.00409825	          0.00000000	          1.40860382	          0.00000000	
          2.22000000	         12.95043337	         13.43344674	          1.53295891	          0.18526828	          0.00000000	         -0.89350245	          0.00000000	          0.00000310	          0.00000000	         -7.16741296	        913.43971389	         43.86316625	         -0.14934573	          0.00000000	         -1.00580547	          0.00000000	          0.47077533	          0.00000000	
          2.24000000	         10.16668511	          9.89375629	          1.37393251	          0.17810742	          0.00000000	         -0.89522914	          0.00000000	          0.00000533	          0.00000000	        -35.03541001	        882.67622178	         38.58551329	         -0.14238769	          0.00000000	         -1.00700408	          0.00000000	         -0.56396211	          0.00000000	
          2.26000000	          8.40102695	          7.53390433	          1.29736045	          0.16780299	          0.00000000	         -0.89760960	          0.00000000	          0.00000981	          0.00000000	        -55.17112687	        862.49704994	         31.39816676	         -0.13603245	          0.00000000	         -1.00799871	          0.00000000	         -2.01388846	          0.00000000	
          2.28000000	          8.11938843	          6.68866027	          1.42817808	          0.15378593	          0.00000000	         -0.90085719	          0.00000000	          0.00003139	          0.00000000	        -59.00216036	        852.80603939	         26.63561543	         -0.12960973	          0.00000000	         -1.00853745	          0.00000000	         -3.88288753	          0.00000000	
          2.30000000	          9.00379297	          6.90129050	          1.72555059	          0.13640958	          0.00000000	         -0.90506287	          0.00000000	          0.00047293	          0.00000000	        -42.28322986	        847.29929330	         27.21888321	         -0.12278056	          0.00000000	         -1.00812339	          0.00000000	         -5.73546712	          0.00000000	
          2.32000000	         11.42513094	          8.35279458	          2.16205467	          0.12369463	          0.00000000	         -0.91116715	          0.00000000	          0.01105815	          0.00000000	        -15.42147189	        835.81187987	         32.82808154	         -0.11560698	          0.00000000	         -1.00626070	          0.00000000	         -7.14706189	          0.00000000	
          2.34000000	         20.91305176	         14.97409029	          3.09347840	          0.15148731	          0.00000000	         -0.92317237	          0.00000000	          0.09436888	          0.00000000	          2.02269256	        801.76458636	         42.19652843	         -0.10708926	          0.00000000	         -1.00262232	          0.00000000	         -7.35680530	          0.00000000	
          2.36000000	         49.42894521	         35.56300786	          5.09352109	          0.19082356	          0.00000000	         -0.93184405	          0.00000000	          0.27131621	          0.00000000	        -11.74464720	        739.11415098	         42.20261828	         -0.09579328	          0.00000000	         -0.99703927	          0.00000000	         -5.93554687	          0.00000000	
          2.38000000	        115.59858094	         85.97620080	         13.27616121	          0.20430095	          0.00000000	         -0.93662644	          0.00000000	          0.38831218	          0.00000000	        -75.57902687	        660.14305245	         32.10091085	         -0.08152325	          0.00000000	         -0.99003618	          0.00000000	         -2.45188587	          0.00000000	
          2.40000000	        170.27897242	        136.52299524	         33.32174829	          0.19477953	          0.00000000	         -0.93771198	          0.00000000	          0.21901357	          0.00000000	       -136.85388979	        574.99085274	         13.01049284	         -0.06491716	          0.00000000	         -0.98299103	          0.00000000	          1.03488219	          0.00000000	
          2.42000000	        182.38490923	        163.88049603	         53.52143418	          0.16635417	          0.00000000	         -0.93797546	          0.00000000	         -0.39752324	          0.00000000	       -148.00558343	        502.19363739	          3.83812722	         -0.05001532	          0.00000000	         -0.97734502	          0.00000000	          1.80779233	          0.00000000	
          2.44000000	        196.24441541	        201.92407278	         62.35929455	          0.12769020	          0.00000000	         -0.93493709	          0.00000000	         -1.90710593	          0.00000000	       -150.91967598	        463.87645122	          0.24149270	         -0.04484005	          0.00000000	         -0.97579616	          0.00000000	          1.55658049	          0.00000000	
          2.46000000	        191.01856542	        295.50543868	          3.79640528	          0.09036972	          0.00000000	         -0.92721252	          0.00000000	         -8.48624965	          0.00000000	       -183.26299767	        430.35390883	         22.27536593	         -0.04290988	          0.00000000	         -0.97531775	          0.00000000	          1.34257768	          0.00000000	
          2.48000000	        147.26860303	        473.98204054	        -31.15717177	          0.08056719	          0.00000000	         -0.91723879	          0.00000000	        -14.12766680	          0.00000000	       -161.20572908	        350.60678649	         34.67296901	         -0.03978082	          0.00000000	         -0.97637980	          0.00000000	          1.04247828	          0.00000000	
          2.50000000	        152.77829304	        660.93281604	        -36.08868864	          0.08213155	          0.00000000	         -0.91047159	          0.00000000	        -15.53429062	          0.00000000	       -171.39902025	        261.67779273	         36.83069213	         -0.03786003	          0.00000000	         -0.98081334	          0.00000000	          0.57746729	          0.00000000	
          2.52000000	        140.33687183	        754.98444452	        -22.16808588	          0.08613288	          0.00000000	         -0.90679720	          0.00000000	        -12.54185308	          0.00000000	       -179.75369968	        182.86340469	         22.40034008	         -0.03374145	          0.00000000	         -0.98843090	          0.00000000	         -0.02665670	          0.00000000	
          2.54000000	         69.49950084	        756.39908349	        -19.93284396	          0.09092563	          0.00000000	         -0.90519241	          0.00000000	        -10.28850853	          0.00000000	       -120.01066418	        105.32095855	         14.53254694	         -0.02124802	          0.00000000	         -0.99344385	          0.00000000	         -0.02582116	          0.00000000	
          2.56000000	         28.85221251	        736.64906959	        -30.58220581	          0.09763376	          0.00000000	         -0.90541492	          0.00000000	         -4.88365524	          0.00000000	        -89.17414393	         68.27708306	          6.25609936	         -0.00182268	          0.00000000	         -0.99287627	          0.00000000	         -0.01598531	          0.00000000	
          2.58000000	         11.71860018	        728.29597198	        -46.10659205	          0.10556043	          0.00000000	         -0.90731931	          0.00000000	          0.85147008	          0.00000000	        -74.80008351	         51.85721665	          4.67103867	          0.02364715	          0.00000000	         -0.99013824	          0.00000000	         -0.00889991	          0.00000000	
          2.60000000	         -3.58478590	        730.37599401	        -55.07978705	          0.11194795	          0.00000000	         -0.91036100	          0.00000000	          3.67458550	          0.00000000	        -60.09080715	         38.58815196	          4.93097045	          0.05334960	          0.00000000	         -0.99074324	          0.00000000	         -0.00579505	          0.00000000	
          2.62000000	        -24.56441064	        728.26661576	        -53.46469492	          0.11309438	          0.00000000	         -0.91331299	          0.00000000	          2.42051672	          0.00000000	        -43.02207619	         26.11780266	          4.97206568	          0.08631031	          0.00000000	         -0.99440657	          0.00000000	         -0.00425297	          0.00000000	
          2.64000000	        -42.60785015	        719.59621684	        -50.84366521	          0.10739710	          0.00000000	         -0.91499430	          0.00000000	         -0.40489327	          0.00000000	        -29.16609988	         17.19326409	          4.55758943	          0.12146720	          0.00000000	         -0.99977032	          0.00000000	         -0.00338727	          0.00000000	
          2.66000000	        -46.57004601	        724.55076956	        -44.15598763	          0.09715580	          0.00000000	         -0.91525558	          0.00000000	         -2.49674403	          0.00000000	        -22.76048800	         13.39166627	          4.89902546	          0.15733604	          0.00000000	         -1.00561359	          0.00000000	         -0.00327693	          0.00000000	
          2.68000000	        -42.52960928	        758.42034502	        -34.22994342	          0.08851306	          0.00000000	         -0.91533240	          0.00000000	         -1.61209994	          0.00000000	        -23.07443333	         13.76934515	          6.52487658	          0.19269303	          0.00000000	         -1.01188932	          0.00000000	         -0.00403414	          0.00000000	
          2.70000000	        -43.42315268	        806.58568056	        -21.92151636	          0.08663350	          0.00000000	         -0.91627968	          0.00000000	          4.61688113	          0.00000000	        -26.27245355	         15.95684172	          8.98440624	          0.22718431	          0.00000000	         -1.01961253	          0.00000000	         -0.00475380	          0.00000000	
          2.72000000	        -55.18431019	        840.12077247	         -5.85814331	          0.08991819	          0.00000000	         -0.91779191	          0.00000000	         11.78559711	          0.00000000	        -22.46297829	         13.86253178	          8.40709288	          0.26121465	          0.00000000	         -1.02935780	          0.00000000	         -0.00338539	          0.00000000	
          2.74000000	        -78.49343205	        841.73402820	          9.57314816	          0.09065657	          0.00000000	         -0.91862551	          0.00000000	         11.02241763	          0.00000000	         -8.79790584	          5.51652572	          3.24360502	          0.29493266	          0.00000000	         -1.04060836	          0.00000000	         -0.00109750	          0.00000000	
          2.76000000	        -88.56026642	        788.27802334	         10.95688552	          0.07948373	          0.00000000	         -0.91786351	          0.00000000	          8.63663421	          0.00000000	         -1.42399108	          0.91476350	          0.45501818	          0.32502885	          0.00000000	         -1.05061212	          0.00000000	         -0.00023501	          0.00000000	
          2.78000000	        -74.43249763	        746.95149902	         18.53113465	          0.05517859	          0.00000000	         -0.91541771	          0.00000000	         -2.87203186	          0.00000000	         -0.04162210	          0.02794456	          0.01064569	          0.27368121	          0.00000000	         -1.04499062	          0.00000000	          0.00000150	          0.00000000	
          2.80000000	        -34.68318022	        766.19564788	         24.47429327	          0.03258216	          0.00000000	         -0.91360945	          0.00000000	         -9.85450157	          0.00000000	         -0.06513053	          0.04663516	          0.01584796	          0.16261008	          0.00000000	         -1.05628869	          0.00000000	          0.00016116	          0.00000000	
          2.82000000	          3.94144750	        822.52809552	         29.29738334	          0.02144488	          0.00000000	         -0.91334864	          0.00000000	        -11.03166474	          0.00000000	         -1.24915749	          0.94681943	          0.25547952	          0.14523662	          0.00000000	         -1.05832975	          0.00000000	          0.00029500	          0.00000000	
          2.84000000	         37.49794367	        849.42458926	         19.75315680	          0.01616266	          0.00000000	         -0.91341404	          0.00000000	         -8.57708762	          0.00000000	         -9.13639684	          7.23172160	          0.68053429	          0.15830727	          0.00000000	         -1.06003048	          0.00000000	          0.00098225	          0.00000000	
          2.86000000	         64.38169683	        842.94961661	          0.64150760	          0.01363878	          0.00000000	         -0.91319900	          0.00000000	         -4.73082299	          0.00000000	        -30.80816964	         25.49805636	         -2.87889923	          0.17135510	          0.00000000	         -1.06017439	          0.00000000	          0.00235212	          0.00000000	
          2.88000000	         82.78549698	        826.11952068	         -8.69542845	          0.01301588	          0.00000000	         -0.91279869	          0.00000000	         -2.39836738	          0.00000000	        -65.09178379	         57.04376344	        -15.19403494	          0.18385758	          0.00000000	         -1.05862665	          0.00000000	          0.00361179	          0.00000000	
          2.90000000	         71.64956209	        799.90658568	        -10.56313280	          0.01280188	          0.00000000	         -0.91277164	          0.00000000	         -2.62136400	          0.00000000	        -77.05506292	         72.65272889	        -25.27374188	          0.19553501	          0.00000000	         -1.05593232	          0.00000000	          0.00408404	          0.00000000	
          2.92000000	         47.73323354	        769.89014108	         -9.60895086	          0.01186525	          0.00000000	         -0.91346310	          0.00000000	         -5.01273818	          0.00000000	        -72.04504728	         74.93771730	        -30.55137497	          0.20550711	          0.00000000	         -1.05291473	          0.00000000	          0.00403834	          0.00000000	
          2.94000000	         32.21422001	        742.20414425	          8.81884147	          0.00963436	          0.00000000	         -0.91440836	          0.00000000	         -8.11085029	          0.00000000	        -60.89595082	         73.72791750	        -37.35042648	          0.21311111	          0.00000000	         -1.05022592	          0.00000000	          0.00382371	          0.00000000	
          2.96000000	         26.76521556	        734.19182124	         30.01071442	          0.00733913	          0.00000000	         -0.91504696	          0.00000000	        -10.89358435	          0.00000000	        -44.11713003	         74.20686440	        -52.04273882	          0.21848979	          0.00000000	         -1.04804334	          0.00000000	          0.00264329	          0.00000000	
          2.98000000	         31.05634374	        745.63056050	         47.31701290	          0.00578124	          0.00000000	         -0.91533037	          0.00000000	        -13.42933051	          0.00000000	        -26.01663668	         75.67711055	        -62.99280892	          0.22199600	          0.00000000	         -1.04553731	          0.00000000	          0.00161760	          0.00000000	
          3.00000000	         45.77246614	        767.14814257	         55.88069095	          0.00568534	          0.00000000	         -0.91532013	          0.00000000	        -14.73000179	          0.00000000	        -19.25690771	         74.89846958	        -64.60717659	          0.22389013	          0.00000000	         -1.04248954	          0.00000000	          0.00109979	          0.00000000	
          3.02000000	         61.60696931	        779.61285389	         56.78098903	          0.00634745	          0.00000000	         -0.91518816	          0.00000000	        -14.59927168	          0.00000000	        -22.57578874	         69.11207249	        -57.97086625	          0.22505352	          0.00000000	         -1.03908408	          0.00000000	          0.00017298	          0.00000000	
          3.04000000	         73.08507800	        782.16168080	         41.06125491	          0.00773597	          0.00000000	         -0.91494564	          0.00000000	        -12.22601596	          0.00000000	        -26.13165833	         58.63963265	        -46.45100937	          0.22648466	          0.00000000	         -1.03542722	          0.00000000	         -0.00137115	          0.00000000	
          3.06000000	         80.46907957	        779.31781183	         14.22596613	          0.00958510	          0.00000000	         -0.91473650	          0.00000000	         -8.77178448	          0.00000000	        -27.39901069	         45.06955596	        -31.02556762	          0.22865927	          0.00000000	         -1.03150101	          0.00000000	         -0.00280257	          0.00000000	
          3.08000000	         83.75248850	        777.06403723	         -5.20673696	          0.01186156	          0.00000000	         -0.91425145	          0.00000000	         -3.66142145	          0.00000000	        -24.37957284	         30.60354795	        -14.67054199	          0.23213009	          0.00000000	         -1.02779081	          0.00000000	         -0.00317407	          0.00000000	
          3.10000000	         76.31664955	        780.93728034	        -23.64019519	          0.01447354	          0.00000000	         -0.91390263	          0.00000000	          1.43878384	          0.00000000	        -16.13550455	         17.26613794	         -3.53357616	          0.23759094	          0.00000000	         -1.02525691	          0.00000000	         -0.00169367	          0.00000000	
          3.12000000	         61.16337810	        791.54020908	        -41.51151035	          0.01744945	          0.00000000	         -0.91381199	          0.00000000	          5.42815546	          0.00000000	         -7.37769429	          7.41163839	          0.47437697	          0.24527871	          0.00000000	         -1.02476865	          0.00000000	         -0.00045828	          0.00000000	
          3.14000000	         42.61351475	        801.64408454	        -56.02848065	          0.02043873	          0.00000000	         -0.91402406	          0.00000000	          8.14754252	          0.00000000	         -3.02676138	          3.01378409	          0.91833893	          0.25495173	          0.00000000	         -1.02693841	          0.00000000	         -0.00007877	          0.00000000	
          3.16000000	         23.07913764	        802.52861459	        -66.35520907	          0.02259187	          0.00000000	         -0.91473753	          0.00000000	         10.27295385	          0.00000000	         -1.09926521	          1.12452513	          0.58179172	          0.26632667	          0.00000000	         -1.03233451	          0.00000000	         -0.00000993	          0.00000000	
          3.18000000	         13.76359018	        795.12302084	        -70.40497282	          0.02314359	          0.00000000	         -0.91596776	          0.00000000	         11.44498708	          0.00000000	         -0.23073663	          0.25061916	          0.17592161	          0.27874983	          0.00000000	         -1.04128274	          0.00000000	         -0.00000106	          0.00000000	
          3.20000000	         21.99275526	        788.48878112	        -66.24211478	          0.02223725	          0.00000000	         -0.91733725	          0.00000000	         11.15551395	          0.00000000	         -0.03192771	          0.03741363	          0.03147620	          0.29145365	          0.00000000	         -1.05349003	          0.00000000	         -0.00000011	          0.00000000	
          3.22000000	         43.51995460	        789.07841128	        -58.37726711	          0.02109716	          0.00000000	         -0.91855956	          0.00000000	          9.99726754	          0.00000000	         -0.00339382	          0.00420777	          0.00388041	          0.30418821	          0.00000000	         -1.06799263	          0.00000000	         -0.00000001	          0.00000000	
          3.24000000	         66.80003752	        793.22610376	        -50.18870133	          0.02087245	          0.00000000	         -0.91958439	          0.00000000	          8.81293248	          0.00000000	         -0.00029603	          0.00036963	          0.00035273	          0.31734972	          0.00000000	         -1.08371086	          0.00000000	         -0.00000000	          0.00000000	
          3.26000000	         78.78415599	        790.08195277	        -45.46946537	          0.02196091	          0.00000000	         -0.92053865	          0.00000000	          8.37693374	          0.00000000	         -0.00002098	          0.00002508	          0.00002408	          0.33168980	          0.00000000	         -1.10007351	          0.00000000	         -0.00000000	          0.00000000	
          3.28000000	         71.86878189	        770.19156059	        -46.62033398	          0.02404073	          0.00000000	         -0.92156451	          0.00000000	          9.56953514	          0.00000000	         -0.00000118	          0.00000132	          0.00000128	          0.34769845	          0.00000000	         -1.11733597	          0.00000000	         -0.00000000	          0.00000000	
          3.30000000	         54.55365493	        733.72144359	        -57.85103281	          0.02654070	          0.00000000	         -0.92298241	          0.00000000	         12.29059400	          0.00000000	         -0.00000006	          0.00000006	          0.00000006	          0.36530140	          0.00000000	         -1.13633564	          0.00000000	         -0.00000000	          0.00000000	
          3.32000000	         35.86008202	        685.95428550	        -65.53125492	          0.02905514	          0.00000000	         -0.92514272	          0.00000000	         16.23285639	          0.00000000	         -0.00000000	          0.00000000	          0.00000000	          0.38392952	          0.00000000	         -1.15811083	          0.00000000	          0.00000000	          0.00000000	
          3.34000000	         23.53868442	        636.24818020	        -71.59647788	          0.03315045	          0.00000000	         -0.92911013	          0.00000000	         20.29353117	          0.00000000	         -0.00000000	          0.00000000	          0.00000000	          0.40264087	          0.00000000	         -1.18276432	          0.00000000	          0.00000000	          0.00000000	
          3.36000000	         15.11085218	        601.71247362	        -74.70737443	          0.04418599	          0.00000000	         -0.93646460	          0.00000000	         22.95848026	          0.00000000	         -0.00000000	          0.00000000	          0.00000000	          0.42015876	          0.00000000	         -1.20972964	          0.00000000	          0.00000000	          0.00000000	
          3.38000000	        -11.91090028	        596.52289910	        -52.29132239	          0.06883323	          0.00000000	         -0.94831574	          0.00000000	         28.60106540	          0.00000000	         -0.00000000	          0.00000000	          0.00000000	          0.43523139	          0.00000000	         -1.23808050	          0.00000000	         -0.00000000	          0.00000000	
          3.40000000	        -39.68850609	        638.00113769	        -14.23289790	          0.10708295	          0.00000000	         -0.96386538	          0.00000000	         33.60666103	          0.00000000	         -0.00000000	          0.00000000	          0.00000000	          0.44529384	          0.00000000	         -1.26662791	          0.00000000	          0.00000000	          0.00000000	
          3.42000000	        -65.38056307	        733.91868370	         16.03765549	          0.14514951	          0.00000000	         -0.97821157	          0.00000000	         24.50327919	          0.00000000	         -0.00000000	          0.00000000	          0.00000000	          0.44919440	          0.00000000	         -1.29453009	          0.00000000	         -0.00000000	          0.00000000	
          3.44000000	        -82.22920274	        823.37750352	         37.74479550	          0.17052666	          0.00000000	         -0.98672459	          0.00000000	         12.59508677	          0.00000000	         -0.00000000	          0.00000000	          0.00000000	          0.44773761	          0.00000000	         -1.32110010	          0.00000000	          0.00000000	          0.00000000	
          3.46000000	        -85.63618718	        838.27967361	         53.12180838	          0.17956093	          0.00000000	         -0.98944196	          0.00000000	          9.85126189	          0.00000000	         -0.00000000	          0.00000000	          0.00000000	          0.44260138	          0.00000000	         -1.34587589	          0.00000000	         -0.00000000	          0.00000000	
          3.48000000	        -93.08178385	        772.89946548	         67.50091123	          0.18450297	          0.00000000	         -0.99051924	          0.00000000	          8.51400884	          0.00000000	          0.00000000	          0.00000000	          0.00000000	          0.43482187	          0.00000000	         -1.36876777	          0.00000000	          0.00000000	          0.00000000	
          3.50000000	       -100.19105606	        706.94511054	         76.83149289	          0.19031885	          0.00000000	         -0.99136551	          0.00000000	          5.58864722	          0.00000000	          0.00000000	          0.00000000	          0.00000000	          0.42408192	          0.00000000	         -1.38862344	          0.00000000	         -0.00000000	          0.00000000	
          3.52000000	       -110.04700242	        724.73110352	         69.25315330	          0.19546415	          0.00000000	         -0.99228860	          0.00000000	          0.97241547	          0.00000000	          0.00000000	          0.00000000	          0.00000000	          0.41063167	          0.00000000	         -1.40502408	          0.00000000	          0.00000000	          0.00000000	
          3.54000000	       -127.87343112	        773.27789208	         41.59116816	          0.19954146	          0.00000000	         -0.99297846	          0.00000000	         -4.04494472	          0.00000000	          0.00000000	          0.00000000	          0.00000000	          0.39488941	          0.00000000	         -1.41807947	          0.00000000	          0.00000000	          0.00000000	
          3.56000000	       -138.36073402	        744.43416858	          7.20721956	          0.20279067	          0.00000000	         -0.99324429	          0.00000000	         -4.64005481	          0.00000000	          0.00000003	          0.00000003	          0.00000002	          0.37690308	          0.00000000	         -1.42775616	          0.00000000	          0.00000000	          0.00000000	
          3.58000000	       -156.81363813	        755.70955064	         76.69595953	          0.20443326	          0.00000000	         -0.99179480	          0.00000000	         -4.55638377	          0.00000000	          0.00000161	          0.00000124	          0.00000087	          0.35689621	          0.00000000	         -1.43553557	          0.00000000	          0.00000000	          0.00000000	
          3.60000000	        -45.90642829	        192.06735847	       -244.19948429	          0.20830165	          0.00000000	         -1.00014545	          0.00000000	          0.29361885	          0.00000000	          0.00013433	          0.00008946	          0.00003974	          0.33437207	          0.00000000	         -1.44064498	          0.00000000	         -0.00000000	          0.00000000	
          3.62000000	       -180.88096719	        757.28492689	          4.80739814	          0.20304570	          0.00000000	         -0.97571063	          0.00000000	          4.67258964	          0.00000000	          0.00998663	          0.00653602	          0.00390066	          0.31195674	          0.00000000	         -1.45132830	          0.00000000	          0.00000000	          0.00000000	
          3.64000000	       -205.83704798	       1131.35048871	        -16.68819134	          0.19948914	          0.00000000	         -0.97649378	          0.00000000	         -3.58342506	          0.00000000	          0.47145356	          0.26551986	          0.12997212	          0.28306025	          0.00000000	         -1.46074430	          0.00000000	          0.00000000	          0.00000000	
          3.66000000	       -229.91368524	       1455.82326419	         12.97765760	          0.19537193	          0.00000000	         -0.97686268	          0.00000000	         -9.40339839	          0.00000000	          3.02910321	          1.50137524	          0.63382160	          0.24472856	          0.00000000	         -1.47076741	          0.00000000	          0.00000046	          0.00000000	
          3.68000000	       -250.36338561	       1733.81983294	         10.96991519	          0.19343597	          0.00000000	         -0.97757054	          0.00000000	        -19.30932734	          0.00000000	          0.26168722	          0.11442817	          0.04409083	          0.19157777	          0.00000000	         -1.48253344	          0.00000000	          0.00000689	          0.00000000	
          3.70000000	       -237.76810861	       1772.37646740	         24.80606331	          0.19287098	          0.00000000	         -0.97793278	          0.00000000	        -20.38231626	          0.00000000	          0.01354281	          0.00535532	          0.00078919	          0.31809033	          0.00000000	         -1.56537982	          0.00000000	          0.00001460	          0.00000000	
          3.72000000	       -234.96241764	       1837.44359838	         22.04533875	          0.19422124	          0.00000000	         -0.97846266	          0.00000000	        -25.14520266	          0.00000000	          2.57452463	          0.89005043	          0.14964184	          0.30148709	          0.00000000	         -1.59491278	          0.00000000	          0.00000533	          0.00000000	
          3.74000000	       -226.19480411	       1909.91719216	         61.39307778	          0.19738206	          0.00000000	         -0.97867043	          0.00000000	        -31.58238861	          0.00000000	         -0.00009559	         -0.00002895	         -0.00000600	          0.00000000	          0.00000000	          0.00000000	          0.00000000	          0.00015438	          0.00000000	
          3.76000000	       -195.25790690	       2093.65001882	         76.19809103	          0.20260570	          0.00000000	         -0.97953524	          0.00000000	        -45.68825478	          0.00000000	         -0.00000000	         -0.00000000	         -0.00000000	          0.00000000	          0.00000000	          0.00000000	          0.00000000	          0.00000000	          0.00000000	
          3.78000000	        -54.65445985	       1908.52386543	        179.58862236	          0.21239704	          0.00000000	         -0.97991510	          0.00000000	        -43.64255649	          0.00000000	         -0.00000000	         -0.00000000	         -0.00000000	          0.00000000	          0.00000000	          0.00000000	          0.00000000	          0.00000000	          0.00000000	
          3.80000000	         43.50885576	       1485.90906020	        259.23212060	          0.23032911	          0.00000000	         -0.98195522	          0.00000000	        -33.14798666	          0.00000000	         -0.00000000	         -0.00000000	          0.00000000	          0.00000000	          0.00000000	          0.00000000	          0.00000000	          0.00000000	          0.00000000	
          3.82000000	       -122.88699297	       1189.56447013	        242.20856453	          0.24040463	          0.00000000	         -0.98554232	          0.00000000	        -10.86588615	          0.00000000	         -0.00000000	         -0.00000000	          0.00000000	          0.00000000	          0.00000000	          0.00000000	          0.00000000	          0.00000000	          0.00000000	
          3.84000000	         -0.00001446	          0.00019053	         -0.00033820	          0.28833761	          0.00000000	         -0.89277496	          0.00000000	          0.00000004	          0.00000000	         -0.00000000	         -0.00000000	          0.00000000	          0.00000000	          0.00000000	          0.00000000	          0.00000000	          0.00000000	          0.00000000	
          3.86000000	          0.00002431	          0.00002690	         -0.00003577	          0.27649846	          0.00000000	         -0.86398975	          0.00000000	          0.00000000	          0.00000000	         -0.00000000	         -0.00000000	         -0.00000000	          0.00000000	          0.00000000	          0.00000000	          0.00000000	          0.00000000	          0.00000000	
          3.88000000	         -0.00000000	         -0.00000000	          0.00000000	          0.00000000	          0.00000000	          0.00000000	          0.00000000	          0.00000000	          0.00000000	         -0.00000000	         -0.00000000	         -0.00000000	          0.00000000	          0.00000000	          0.00000000	          0.00000000	          0.00000000	          0.00000000	
          3.90000000	         -0.00000000	         -0.00000000	          0.00000000	          0.00000000	          0.00000000	          0.00000000	          0.00000000	          0.00000000	          0.00000000	         -0.00000000	         -0.00000000	          0.00000000	          0.00000000	          0.00000000	          0.00000000	          0.00000000	          0.00000000	          0.00000000	
          3.92000000	         -0.00000000	         -0.00000000	          0.00000000	          0.00000000	          0.00000000	          0.00000000	          0.00000000	          0.00000000	          0.00000000	         -0.00000000	         -0.00000000	         -0.00000000	          0.00000000	          0.00000000	          0.00000000	          0.00000000	          0.00000000	          0.00000000	
          3.94000000	         -0.00000000	         -0.00000000	          0.00000000	          0.00000000	          0.00000000	          0.00000000	          0.00000000	          0.00000000	          0.00000000	         -0.00000000	         -0.00000000	         -0.00000000	          0.00000000	          0.00000000	          0.00000000	          0.00000000	          0.00000000	          0.00000000	
          3.96000000	         -0.00000000	         -0.00000000	          0.00000000	          0.00000000	          0.00000000	          0.00000000	          0.00000000	          0.00000000	          0.00000000	         -0.00000000	         -0.00000000	         -0.00000000	          0.00000000	          0.00000000	          0.00000000	          0.00000000	          0.00000000	          0.00000000	
          3.98000000	         -0.00000000	         -0.00000000	          0.00000000	          0.00000000	          0.00000000	          0.00000000	          0.00000000	          0.00000000	          0.00000000	         -0.00000000	         -0.00000000	         -0.00000000	          0.00000000	          0.00000000	          0.00000000	          0.00000000	          0.00000000	          0.00000000	
          4.00000000	         -0.00000000	         -0.00000000	          0.00000000	          0.00000000	          0.00000000	          0.00000000	          0.00000000	          0.00000000	          0.00000000	         -0.00000000	         -0.00000000	         -0.00000000	          0.00000000	          0.00000000	          0.00000000	          0.00000000	          0.00000000	          0.00000000	
          4.02000000	         -0.00000000	         -0.00000000	          0.00000000	          0.00000000	          0.00000000	          0.00000000	          0.00000000	          0.00000000	          0.00000000	         -0.00000000	         -0.00000000	         -0.00000000	          0.00000000	          0.00000000	          0.00000000	          0.00000000	          0.00000000	          0.00000000	
          4.04000000	         -0.00000000	         -0.00000000	          0.00000000	          0.00000000	          0.00000000	          0.00000000	          0.00000000	          0.00000000	          0.00000000	         -0.00000000	         -0.00000000	         -0.00000000	          0.00000000	          0.00000000	          0.00000000	          0.00000000	          0.00000000	          0.00000000	
          4.06000000	         -0.00000000	         -0.00000000	         -0.00000000	          0.00000000	          0.00000000	          0.00000000	          0.00000000	          0.00000000	          0.00000000	         -0.00000000	         -0.00000000	         -0.00000000	          0.00000000	          0.00000000	          0.00000000	          0.00000000	          0.00000000	          0.00000000	
          4.08000000	         -0.00000000	         -0.00000000	         -0.00000000	          0.00000000	          0.00000000	          0.00000000	          0.00000000	          0.00000000	          0.00000000	         -0.00000000	         -0.00000000	         -0.00000000	          0.00000000	          0.00000000	          0.00000000	          0.00000000	          0.00000000	          0.00000000	
          4.10000000	         -0.00000000	         -0.00000000	          0.00000000	          0.00000000	          0.00000000	          0.00000000	          0.00000000	          0.00000000	          0.00000000	         -0.00000000	         -0.00000000	         -0.00000000	          0.00000000	          0.00000000	          0.00000000	          0.00000000	          0.00000000	          0.00000000	
          4.12000000	         -0.00000000	         -0.00000000	          0.00000000	          0.00000000	          0.00000000	          0.00000000	          0.00000000	          0.00000000	          0.00000000	         -0.00013394	          0.00021301	         -0.00033359	         -0.13808510	          0.00000000	         -1.24964701	          0.00000000	         -0.00000000	          0.00000000	
          4.14000000	         -0.00000000	         -0.00000000	          0.00000000	          0.00000000	          0.00000000	          0.00000000	          0.00000000	          0.00000000	          0.00000000	        -13.75429185	       1179.56909944	        362.85255807	         -0.14325423	          0.00000000	         -1.25277176	          0.00000000	          0.08943708	          0.00000000	
          4.16000000	         -0.00000000	         -0.00000000	          0.00000000	          0.00000000	          0.00000000	          0.00000000	          0.00000000	          0.00000000	          0.00000000	         64.23044410	       1354.70485954	         -5.38031989	         -0.11364294	          0.00000000	         -1.21338276	          0.00000000	         62.79206210	          0.00000000	
          4.18000000	         -0.00000000	          0.00000000	          0.00000000	          0.14188151	          0.00000000	         -0.91386306	          0.00000000	          0.00000000	          0.00000000	        117.90000861	       1484.65043301	         51.09832297	         -0.13810438	          0.00000000	         -1.18626567	          0.00000000	          1.44559270	          0.00000000	
          4.20000000	         -0.00152985	          0.00086340	         -0.00014857	          0.15715091	          0.00000000	         -0.88189689	          0.00000000	          0.00000050	          0.00000000	        260.89223498	       1922.47844316	        222.33235778	         -0.19277535	          0.00000000	         -1.18915020	          0.00000000	         69.53078070	          0.00000000	
          4.22000000	        -12.61490546	          7.66767696	         -7.08836377	          0.17789449	          0.00000000	         -0.84636782	          0.00000000	          0.02086325	          0.00000000	        201.40122798	       1895.79186502	        167.31612601	         -0.19316750	          0.00000000	         -1.17184950	          0.00000000	         50.48324586	          0.00000000	
          4.24000000	        -81.78228036	         57.95075553	        -79.31747896	          0.20377585	          0.00000000	         -0.82090881	          0.00000000	          0.15394963	          0.00000000	        178.13266025	       1577.05703489	         48.71614068	         -0.20226606	          0.00000000	         -1.15823486	          0.00000000	         28.75867724	          0.00000000	
          4.26000000	        -26.49212978	         22.28907736	        -32.74137082	          0.21219383	          0.00000000	         -0.80209555	          0.00000000	          0.06240053	          0.00000000	        133.89478478	       1448.85559026	          6.21887827	         -0.21631637	          0.00000000	         -1.15125483	          0.00000000	         22.72084910	          0.00000000	
          4.28000000	        -10.82803661	         11.53506840	        -17.08639897	          0.06191651	          0.00000000	         -0.72630090	          0.00000000	          0.06425129	          0.00000000	        166.55484307	       1460.33902561	          2.22128358	         -0.24980455	          0.00000000	         -1.14056042	          0.00000000	         22.56264072	          0.00000000	
          4.30000000	        -16.75709383	         22.85005226	        -34.30774852	          0.01715353	          0.00000000	         -0.68477817	          0.00000000	          0.00812376	          0.00000000	        180.42627463	       1304.45550823	          2.88000693	         -0.27558784	          0.00000000	         -1.13160363	          0.00000000	         15.33571746	          0.00000000	
          4.32000000	         -6.12650487	         11.31729247	        -16.79079540	          0.02532630	          0.00000000	         -0.65579860	          0.00000000	         -0.00000085	          0.00000000	        143.90491799	       1035.40370622	         10.89136820	         -0.28437733	          0.00000000	         -1.12738007	          0.00000000	          4.30769668	          0.00000000	
          4.34000000	         -0.47998921	          1.32826412	         -1.94860224	          0.03352237	          0.00000000	         -0.62624723	          0.00000000	         -0.00000000	          0.00000000	        106.13565791	        892.30153765	          7.82694973	         -0.28327484	          0.00000000	         -1.12718136	          0.00000000	          2.68888607	          0.00000000	
          4.36000000	         -0.00601856	          0.03333346	         -0.04764248	          0.03779725	          0.00000000	         -0.59737136	          0.00000000	         -0.00000000	          0.00000000	         77.86238421	        787.57465405	          0.94808115	         -0.28310247	          0.00000000	         -1.12665450	          0.00000000	          4.12417926	          0.00000000	
          4.38000000	          0.00001535	          0.00081161	         -0.00110958	          0.03763376	          0.00000000	         -0.57089702	          0.00000000	         -0.00000000	          0.00000000	         62.65286613	        720.72659575	         -5.22877289	         -0.28479839	          0.00000000	         -1.12547517	          0.00000000	          5.63641187	          0.00000000	
          4.40000000	          0.00005262	          0.00022212	         -0.00028446	          0.03288380	          0.00000000	         -0.54811115	          0.00000000	          0.00000000	          0.00000000	         56.89896626	        690.14753591	         -9.27906613	         -0.28733544	          0.00000000	         -1.12412649	          0.00000000	          7.79992854	          0.00000000	
          4.42000000	          0.00001504	          0.00003221	         -0.00003726	          0.02395051	          0.00000000	         -0.52993322	          0.00000000	          0.00000000	          0.00000000	         58.51988219	        684.39935564	         -4.68373570	         -0.29042696	          0.00000000	         -1.12288936	          0.00000000	          9.68225908	          0.00000000	
          4.44000000	          0.00000428	          0.00000611	         -0.00000602	          0.01162145	          0.00000000	         -0.51690634	          0.00000000	          0.00000000	          0.00000000	         69.19039532	        700.45697182	          9.91398443	         -0.29280336	          0.00000000	         -1.12214030	          0.00000000	         10.39778770	          0.00000000	
          4.46000000	          0.00000174	          0.00000193	         -0.00000148	         -0.00273661	          0.00000000	         -0.50892621	          0.00000000	          0.00000000	          0.00000000	         78.51165499	        726.29601205	         21.73293619	         -0.29458590	          0.00000000	         -1.12201596	          0.00000000	          8.86162959	          0.00000000	
          4.48000000	          0.00000110	          0.00000103	         -0.00000053	         -0.01810993	          0.00000000	         -0.50559617	          0.00000000	          0.00000000	          0.00000000	         89.21412670	        752.27980332	         26.65451724	         -0.29550262	          0.00000000	         -1.12241087	          0.00000000	          6.84028749	          0.00000000	
          4.50000000	          0.00000104	          0.00000089	         -0.00000022	         -0.03360754	          0.00000000	         -0.50620221	          0.00000000	          0.00000000	          0.00000000	        105.42362329	        773.29416451	         27.72797699	         -0.29450925	          0.00000000	         -1.12330174	          0.00000000	          5.37323967	          0.00000000	
          4.52000000	          0.00000137	          0.00000112	         -0.00000001	         -0.04295595	          0.00000000	         -0.51054693	          0.00000000	          0.00000000	          0.00000000	        114.22633880	        792.51661525	         25.92640055	         -0.29009996	          0.00000000	         -1.12491643	          0.00000000	          3.61963050	          0.00000000	
          4.54000000	          0.00000470	          0.00000374	          0.00000031	          0.03408110	          0.00000000	         -0.52748330	          0.00000000	          0.00000003	          0.00000000	        101.69752641	        823.78582787	         25.27593866	         -0.28087877	          0.00000000	         -1.12760653	          0.00000000	          1.60762866	          0.00000000	
          4.56000000	          0.00015498	          0.00012052	          0.00002141	          0.09152585	          0.00000000	         -0.54065050	          0.00000000	          0.00000009	          0.00000000	         79.56915118	        878.57960697	         41.23633681	         -0.26663637	          0.00000000	         -1.13143618	          0.00000000	         -3.45840996	          0.00000000	
          4.58000000	          0.00687920	          0.00523859	          0.00173170	          0.08093305	          0.00000000	         -0.54670021	          0.00000000	          0.00000045	          0.00000000	         57.10376538	        948.52755246	         73.93684021	         -0.24836740	          0.00000000	         -1.13628388	          0.00000000	         -9.97870013	          0.00000000	
          4.60000000	          0.17434038	          0.13019932	          0.05823472	          0.06669581	          0.00000000	         -0.55320400	          0.00000000	          0.00003294	          0.00000000	         45.75276452	        994.15050618	        114.07554399	         -0.22761847	          0.00000000	         -1.14170198	          0.00000000	        -12.43762582	          0.00000000	
          4.62000000	          1.89276026	          1.39539203	          0.72264053	          0.05737677	          0.00000000	         -0.55945986	          0.00000000	          0.00106528	          0.00000000	         42.82491647	        980.07848147	        140.95495708	         -0.20589244	          0.00000000	         -1.14684003	          0.00000000	        -11.79052859	          0.00000000	
          4.64000000	          8.56445547	          6.31881622	          3.52592059	          0.05572482	          0.00000000	         -0.56460272	          0.00000000	          0.00856355	          0.00000000	         35.25819554	        926.41204054	        144.16109192	         -0.18698501	          0.00000000	         -1.14975802	          0.00000000	         -9.71547868	          0.00000000	
          4.66000000	         17.30417133	         13.12681970	          8.03859345	          0.04676783	          0.00000000	         -0.57167323	          0.00000000	          0.02089231	          0.00000000	         23.83053684	        876.17074757	        128.13898175	         -0.17434168	          0.00000000	         -1.14884418	          0.00000000	        -10.11460564	          0.00000000	
          4.68000000	         23.87614194	         19.21773569	         13.40910982	          0.03157889	          0.00000000	         -0.58108910	          0.00000000	          0.03309036	          0.00000000	         14.27701751	        808.53392733	        105.57284857	         -0.16159328	          0.00000000	         -1.14633722	          0.00000000	         -9.33166004	          0.00000000	
          4.70000000	         29.87785203	         26.59093296	         21.59755793	          0.01602131	          0.00000000	         -0.59212648	          0.00000000	          0.04639934	          0.00000000	          5.74252792	        725.15809749	         97.05000825	         -0.14954631	          0.00000000	         -1.14285530	          0.00000000	         -7.23376751	          0.00000000	
          4.72000000	         36.75837041	         38.25280991	         35.81522647	          0.00013948	          0.00000000	         -0.60501604	          0.00000000	          0.06099136	          0.00000000	         -2.89877755	        616.58816444	         90.81241903	         -0.13518418	          0.00000000	         -1.13943727	          0.00000000	         -3.69273078	          0.00000000	
          4.74000000	         52.72638177	         70.31367881	         74.93177234	         -0.01454199	          0.00000000	         -0.61915830	          0.00000000	          0.07270709	          0.00000000	        -13.44524952	        524.91012933	         74.54614700	         -0.12230456	          0.00000000	         -1.13809805	          0.00000000	         -1.03364598	          0.00000000	
          4.76000000	         70.77161459	        141.20359643	        159.98794444	         -0.02766912	          0.00000000	         -0.63365086	          0.00000000	          0.02379579	          0.00000000	        -36.67894128	        466.45914001	         18.84764444	         -0.11507422	          0.00000000	         -1.14049541	          0.00000000	         -0.09094530	          0.00000000	
          4.78000000	         59.06214722	        234.04455602	        251.27456453	         -0.03739623	          0.00000000	         -0.64608141	          0.00000000	         -0.12073708	          0.00000000	        -51.01358448	        413.46026159	        -58.73415962	         -0.11002743	          0.00000000	         -1.14386362	          0.00000000	          0.13578035	          0.00000000	
          4.80000000	          1.34314029	        303.35097507	        179.63634775	         -0.04366034	          0.00000000	         -0.65478474	          0.00000000	          0.50358337	          0.00000000	        -28.56363734	        344.51293095	        -79.92370551	         -0.10492672	          0.00000000	         -1.14508311	          0.00000000	          0.08520929	          0.00000000	
          4.82000000	        -26.32386478	        468.46848521	         85.51395599	         -0.04531420	          0.00000000	         -0.65823807	          0.00000000	         -1.10382692	          0.00000000	        -27.62183667	        277.80297666	        -71.35044246	         -0.10243890	          0.00000000	         -1.14451218	          0.00000000	          0.01838796	          0.00000000	
          4.84000000	        -34.81167578	        664.20840078	        -12.29300715	         -0.04706044	          0.00000000	         -0.66005259	          0.00000000	         -2.99077738	          0.00000000	        -33.96283820	        200.22693467	        -61.37552112	         -0.10117745	          0.00000000	         -1.14383537	          0.00000000	          0.00112337	          0.00000000	
          4.86000000	          6.13256913	        817.32106525	       -121.28635013	         -0.04864502	          0.00000000	         -0.66139226	          0.00000000	         -4.84284990	          0.00000000	        -50.79912827	        118.12511834	        -17.58028165	         -0.10100271	          0.00000000	         -1.14114543	          0.00000000	          0.00000808	          0.00000000	
          4.88000000	         11.84157215	        891.50764812	       -140.12055590	         -0.05003843	          0.00000000	         -0.66121759	          0.00000000	         -6.57310625	          0.00000000	        -39.94021195	         41.46058267	         10.04220216	         -0.09855643	          0.00000000	         -1.13870098	          0.00000000	          0.00000019	          0.00000000	
          4.90000000	          3.71936480	        881.93019443	       -120.21324893	         -0.05047470	          0.00000000	         -0.66040327	          0.00000000	         -7.81260876	          0.00000000	        -14.55724058	         12.51623430	         -0.09736417	         -0.08524916	          0.00000000	         -1.14198485	          0.00000000	          0.00000009	          0.00000000	
          4.92000000	          3.36722154	        803.12649981	        -95.20653911	         -0.04985226	          0.00000000	         -0.65954435	          0.00000000	         -8.47623864	          0.00000000	         -9.25331128	          6.98108415	         -1.20021837	         -0.06446490	          0.00000000	         -1.14122350	          0.00000000	          0.00000002	          0.00000000	
          4.94000000	        -12.55934815	        703.30919823	        -88.34740232	         -0.04931948	          0.00000000	         -0.65897481	          0.00000000	         -8.68874025	          0.00000000	         -3.69673778	          2.53749885	         -0.67073960	         -0.03772851	          0.00000000	         -1.13725544	          0.00000000	          0.00000001	          0.00000000	
          4.96000000	        -28.04616520	        637.26146470	        -94.24809022	         -0.04994521	          0.00000000	         -0.65859306	          0.00000000	         -7.93754272	          0.00000000	         -1.93310797	          1.24427576	         -0.36508257	         -0.00691728	          0.00000000	         -1.13160661	          0.00000000	          0.00000001	          0.00000000	
          4.98000000	        -40.05714633	        638.16123101	       -114.46291416	         -0.05184215	          0.00000000	         -0.65829547	          0.00000000	         -5.97603534	          0.00000000	         -0.80450908	          0.49731035	         -0.14837126	          0.02630461	          0.00000000	         -1.12542130	          0.00000000	          0.00000001	          0.00000000	
          5.00000000	        -46.94681037	        716.08460042	       -121.12043454	         -0.05401759	          0.00000000	         -0.65749425	          0.00000000	         -1.81934368	          0.00000000	         -0.29317437	          0.17718414	         -0.05158527	          0.06083330	          0.00000000	         -1.11918631	          0.00000000	          0.00000002	          0.00000000	
          5.02000000	        -51.49063879	        840.32236779	       -114.36416934	         -0.05578074	          0.00000000	         -0.65659585	          0.00000000	          4.88990063	          0.00000000	         -0.08158796	          0.04894751	         -0.01498924	          0.09605261	          0.00000000	         -1.11263528	          0.00000000	          0.00000003	          0.00000000	
          5.04000000	        -54.30369410	        919.42116393	        -95.25278125	         -0.05686473	          0.00000000	         -0.65595322	          0.00000000	         10.66013468	          0.00000000	         -0.01105502	          0.00669859	         -0.00239067	          0.13091477	          0.00000000	         -1.10479785	          0.00000000	          0.00000008	          0.00000000	
          5.06000000	        -50.43410880	        879.81736223	        -62.99175398	         -0.05688389	          0.00000000	         -0.65546923	          0.00000000	         10.39555614	          0.00000000	         -0.00047002	          0.00029269	         -0.00012804	          0.15240322	          0.00000000	         -1.09149979	          0.00000000	          0.00000012	          0.00000000	
          5.08000000	        -32.58721452	        768.66825774	        -49.64407399	         -0.05610392	          0.00000000	         -0.65527134	          0.00000000	          4.83397706	          0.00000000	         -0.00002191	          0.00001418	         -0.00000706	          0.11238469	          0.00000000	         -1.06247187	          0.00000000	         -0.00000000	          0.00000000	
          5.10000000	        -16.24664333	        673.84720959	        -40.66079456	         -0.05603918	          0.00000000	         -0.65481717	          0.00000000	         -1.96823273	          0.00000000	         -0.00000325	          0.00000219	         -0.00000119	          0.11765447	          0.00000000	         -1.05406464	          0.00000000	          0.00000001	          0.00000000	
          5.12000000	        -17.23718844	        632.81851581	        -52.88334615	         -0.05825899	          0.00000000	         -0.65407992	          0.00000000	         -7.92139337	          0.00000000	         -0.00000748	          0.00000511	         -0.00000196	          0.00060706	          0.00000000	         -1.06463685	          0.00000000	          0.00000001	          0.00000000	
          5.14000000	        -32.64063512	        641.07022125	        -81.34218161	         -0.06383021	          0.00000000	         -0.65202279	          0.00000000	        -11.58210905	          0.00000000	         -0.00006022	          0.00004297	         -0.00001716	          0.01497474	          0.00000000	         -1.05996089	          0.00000000	          0.00000000	          0.00000000	
          5.16000000	        -38.72390436	        705.87802786	        -85.49078132	         -0.07736111	          0.00000000	         -0.64610795	          0.00000000	        -14.69510587	          0.00000000	         -0.00035322	          0.00026868	         -0.00011682	          0.03354633	          0.00000000	         -1.05388499	          0.00000000	          0.00000000	          0.00000000	
          5.18000000	        -17.96829471	        849.58195787	        -77.73028739	         -0.10290038	          0.00000000	         -0.63900262	          0.00000000	         -7.60282749	          0.00000000	         -0.00163092	          0.00134967	         -0.00068628	          0.04973242	          0.00000000	         -1.04686071	          0.00000000	          0.00000000	          0.00000000	
          5.20000000	         15.30459167	        992.52538867	        -98.09335983	         -0.12538845	          0.00000000	         -0.63445404	          0.00000000	          3.26991925	          0.00000000	         -0.00540652	          0.00493442	         -0.00290874	          0.06354818	          0.00000000	         -1.03915750	          0.00000000	          0.00000000	          0.00000000	
          5.22000000	         46.03406269	       1053.37470469	       -110.15843576	         -0.14005831	          0.00000000	         -0.63178594	          0.00000000	          8.49924509	          0.00000000	         -0.01027440	          0.01032825	         -0.00659919	          0.07550829	          0.00000000	         -1.03133979	          0.00000000	          0.00000000	          0.00000000	
          5.24000000	         63.04449777	       1019.90922229	       -108.97508429	         -0.14680792	          0.00000000	         -0.63063285	          0.00000000	          9.09246019	          0.00000000	         -0.01002880	          0.01087606	         -0.00718436	          0.08623038	          0.00000000	         -1.02364857	          0.00000000	          0.00000000	          0.00000000	
          5.26000000	         69.73512173	        945.68082844	       -105.85391550	         -0.14692397	          0.00000000	         -0.63069419	          0.00000000	          8.42391280	          0.00000000	         -0.00551627	          0.00624492	         -0.00413895	          0.09632138	          0.00000000	         -1.01617479	          0.00000000	         -0.00000000	          0.00000000	
          5.28000000	         62.67315211	        884.14757801	       -100.31244435	         -0.14201058	          0.00000000	         -0.63164461	          0.00000000	          7.08264778	          0.00000000	         -0.00204219	          0.00231016	         -0.00146908	          0.10643193	          0.00000000	         -1.00919352	          0.00000000	         -0.00000000	          0.00000000	
          5.30000000	         37.48317266	        847.22364666	        -91.97722804	         -0.13398613	          0.00000000	         -0.63321877	          0.00000000	          4.60297392	          0.00000000	         -0.00057689	          0.00063910	         -0.00037824	          0.11682057	          0.00000000	         -1.00287237	          0.00000000	         -0.00000000	          0.00000000	
          5.32000000	          0.95056884	        814.09704993	        -82.99852953	         -0.12556789	          0.00000000	         -0.63517952	          0.00000000	          3.14802634	          0.00000000	         -0.00013738	          0.00014991	         -0.00008144	          0.12725780	          0.00000000	         -0.99730778	          0.00000000	         -0.00000000	          0.00000000	
          5.34000000	        -29.52011464	        761.19796596	        -66.34260810	         -0.12048847	          0.00000000	         -0.63684062	          0.00000000	          3.39543663	          0.00000000	         -0.00003191	          0.00003486	         -0.00001697	          0.13713270	          0.00000000	         -0.99279133	          0.00000000	          0.00000000	          0.00000000	
          5.36000000	        -36.55952914	        694.48041234	        -57.09826635	         -0.12147036	          0.00000000	         -0.63759920	          0.00000000	          1.97254216	          0.00000000	         -0.00000913	          0.00001025	         -0.00000454	          0.14552529	          0.00000000	         -0.98923559	          0.00000000	          0.00000000	          0.00000000	
          5.38000000	        -23.45570561	        636.75630200	        -51.08030305	         -0.12954454	          0.00000000	         -0.63718858	          0.00000000	          0.76164746	          0.00000000	         -0.00000409	          0.00000475	         -0.00000191	          0.15203828	          0.00000000	         -0.98675808	          0.00000000	          0.00000000	          0.00000000	
          5.40000000	         -3.41561695	        615.48237950	        -45.62832847	         -0.14343659	          0.00000000	         -0.63581447	          0.00000000	         -1.85156384	          0.00000000	         -0.00000343	          0.00000417	         -0.00000160	          0.15637905	          0.00000000	         -0.98497217	          0.00000000	          0.00000000	          0.00000000	
          5.42000000	         21.76502078	        634.55358481	        -47.39946316	         -0.16102806	          0.00000000	         -0.63382968	          0.00000000	         -1.78690257	          0.00000000	         -0.00000431	          0.00000780	         -0.00000287	          0.15509995	          0.00000000	         -0.98381277	          0.00000000	          0.00000000	          0.00000000	
          5.44000000	         54.45981368	        703.32972038	        -58.81345055	         -0.17692879	          0.00000000	         -0.63172381	          0.00000000	         -0.74956195	          0.00000000	         -0.00000782	          0.00003084	         -0.00001121	          0.15198768	          0.00000000	         -0.98278652	          0.00000000	          0.00000000	          0.00000000	
          5.46000000	         88.33709937	        798.68223320	        -78.87138086	         -0.18773733	          0.00000000	         -0.62997616	          0.00000000	          4.91404985	          0.00000000	         -0.00000665	          0.00021476	         -0.00007980	          0.14935210	          0.00000000	         -0.98176289	          0.00000000	          0.00000000	          0.00000000	
          5.48000000	        109.09595864	        893.22031993	        -92.59782911	         -0.19193961	          0.00000000	         -0.62875771	          0.00000000	          9.60958807	          0.00000000	          0.00018816	          0.00187772	         -0.00055394	          0.14770676	          0.00000000	         -0.98187251	          0.00000000	          0.00000000	          0.00000000	
          5.50000000	        103.79581644	        953.06748569	        -90.44163066	         -0.19077227	          0.00000000	         -0.62796082	          0.00000000	          8.84387133	          0.00000000	          0.00295568	          0.01447295	         -0.00254514	          0.14634348	          0.00000000	         -0.98245062	          0.00000000	         -0.00000000	          0.00000000	
          5.52000000	         79.19554196	        948.12009179	        -79.84676140	         -0.18709731	          0.00000000	         -0.62741072	          0.00000000	          5.93073780	          0.00000000	          0.03260422	          0.08153253	         -0.01380609	          0.14417014	          0.00000000	         -0.98212317	          0.00000000	         -0.00000001	          0.00000000	
          5.54000000	         57.70239366	        885.13495604	        -68.15055993	         -0.18356366	          0.00000000	         -0.62701053	          0.00000000	          5.36454277	          0.00000000	          0.25633733	          0.34826126	         -0.11898812	          0.14083913	          0.00000000	         -0.98056579	          0.00000000	         -0.00000008	          0.00000000	
          5.56000000	         53.80900799	        812.80685881	        -68.26674406	         -0.18028302	          0.00000000	         -0.62700046	          0.00000000	          5.32389732	          0.00000000	          1.06727420	          1.29130122	         -0.59473226	          0.13783731	          0.00000000	         -0.97875073	          0.00000000	         -0.00000048	          0.00000000	
          5.58000000	         64.07968086	        771.51586299	        -77.65250223	         -0.17530263	          0.00000000	         -0.62740061	          0.00000000	          3.64654183	          0.00000000	          3.49694924	          4.08481838	         -2.03533518	          0.13380329	          0.00000000	         -0.97641412	          0.00000000	         -0.00000503	          0.00000000	
          5.60000000	         73.85520972	        765.51618375	        -82.22958844	         -0.16679472	          0.00000000	         -0.62793206	          0.00000000	          1.44128177	          0.00000000	          8.38938242	          9.46950240	         -4.47689077	          0.12915777	          0.00000000	         -0.97382401	          0.00000000	         -0.00008309	          0.00000000	
          5.62000000	         72.92701281	        782.78894584	        -82.76742475	         -0.15360476	          0.00000000	         -0.62861234	          0.00000000	          0.18500057	          0.00000000	         22.96737686	         25.36163066	        -10.51399150	          0.12512969	          0.00000000	         -0.97160142	          0.00000000	         -0.00135647	          0.00000000	
          5.64000000	         55.72660154	        807.27642372	        -74.35707864	         -0.13610581	          0.00000000	         -0.62946493	          0.00000000	         -0.66138626	          0.00000000	         47.01506607	         52.33079526	        -18.72030834	          0.12419160	          0.00000000	         -0.97068859	          0.00000000	         -0.01316345	          0.00000000	
          5.66000000	         31.98064594	        811.78372261	        -64.30378085	         -0.11607288	          0.00000000	         -0.63066881	          0.00000000	          0.33204679	          0.00000000	         63.54644044	         76.50599785	        -30.65802502	          0.12864321	          0.00000000	         -0.97175681	          0.00000000	         -0.05133926	          0.00000000	
          5.68000000	         15.39162110	        786.98744096	        -48.48021054	         -0.09589846	          0.00000000	         -0.63217055	          0.00000000	          1.44785834	          0.00000000	         52.20887213	        108.74504744	        -47.05172252	          0.15125162	          0.00000000	         -0.97754846	          0.00000000	         -0.10666891	          0.00000000	
          5.70000000	         15.81803637	        735.81552890	        -40.61257927	         -0.07683368	          0.00000000	         -0.63403220	          0.00000000	          1.56480395	          0.00000000	         16.13297132	        157.16137701	        -50.38280608	          0.18879719	          0.00000000	         -0.98497032	          0.00000000	         -0.13971043	          0.00000000	
          5.72000000	         20.03884841	        684.46091106	        -49.38998350	         -0.06142730	          0.00000000	         -0.63583967	          0.00000000	          1.17116569	          0.00000000	        -20.36567503	        206.49394132	        -20.44970738	          0.22241929	          0.00000000	         -0.98998069	          0.00000000	         -1.08235764	          0.00000000	
          5.74000000	         28.99080262	        667.47517498	        -67.48723876	         -0.05480218	          0.00000000	         -0.63651735	          0.00000000	          1.52769355	          0.00000000	        -41.44264553	        209.41093688	          1.96180208	          0.23516148	          0.00000000	         -0.99091348	          0.00000000	         -1.96842741	          0.00000000	
          5.76000000	         34.67904726	        666.17769498	        -91.12627103	         -0.05035211	          0.00000000	         -0.63678341	          0.00000000	          2.66716116	          0.00000000	        -52.33831681	        175.43516807	         25.47688554	          0.23555561	          0.00000000	         -0.98933819	          0.00000000	         -2.43886741	          0.00000000	
          5.78000000	         26.63626046	        665.52758947	        -95.13488838	         -0.04553029	          0.00000000	         -0.63664763	          0.00000000	          4.03195536	          0.00000000	        -51.56600388	        136.49735252	         40.64500872	          0.22612949	          0.00000000	         -0.98585081	          0.00000000	         -2.41569337	          0.00000000	
          5.80000000	         11.38478419	        650.75600331	        -73.46135882	         -0.03905624	          0.00000000	         -0.63611718	          0.00000000	          4.74748156	          0.00000000	        -43.29700200	        118.01833735	         41.54335233	          0.20903944	          0.00000000	         -0.98163980	          0.00000000	         -1.71404770	          0.00000000	
          5.82000000	         -6.61437886	        614.30441621	        -41.10945903	         -0.03004674	          0.00000000	         -0.63515192	          0.00000000	          4.18891414	          0.00000000	        -34.79645980	        132.16882954	         40.10534529	          0.19184829	          0.00000000	         -0.97885721	          0.00000000	         -0.44531408	          0.00000000	
          5.84000000	        -29.79421074	        557.95809720	        -13.81012026	         -0.01916449	          0.00000000	         -0.63361739	          0.00000000	          2.82526448	          0.00000000	        -21.70059690	        190.72252115	         26.21981241	          0.18100268	          0.00000000	         -0.97874487	          0.00000000	          1.59001531	          0.00000000	
          5.86000000	        -64.88806791	        474.28426315	         22.24808482	         -0.00801748	          0.00000000	         -0.63084704	          0.00000000	          1.32043166	          0.00000000	         -1.27984809	        305.52118224	        -18.84920092	          0.17723343	          0.00000000	         -0.98048046	          0.00000000	          4.94739264	          0.00000000	
          5.88000000	        -97.28863864	        368.10467880	         64.22684764	         -0.00081462	          0.00000000	         -0.62720568	          0.00000000	         -0.02435468	          0.00000000	          3.41338667	        460.97079540	        -61.20400234	          0.17590221	          0.00000000	         -0.98191246	          0.00000000	          8.62021256	          0.00000000	
          5.90000000	        -96.38962496	        227.92658063	         56.39862549	          0.00010274	          0.00000000	         -0.62605454	          0.00000000	         -0.00000042	          0.00000000	        -15.84305858	        604.82158859	        -45.31129503	          0.17351749	          0.00000000	         -0.98205693	          0.00000000	          9.38292048	          0.00000000	
          5.92000000	        -81.95697555	        112.62142630	         37.88693435	          0.00132069	          0.00000000	         -0.62501431	          0.00000000	          0.00000001	          0.00000000	        -16.85962047	        715.52407620	         -2.23794012	          0.17146314	          0.00000000	         -0.98192679	          0.00000000	          9.22066731	          0.00000000	
          5.94000000	        -17.18302245	         17.26398815	         -2.99379742	          0.00785378	          0.00000000	         -0.62880480	          0.00000000	          0.00000000	          0.00000000	        -62.22351072	        777.74410023	         62.98743869	          0.16867340	          0.00000000	         -0.98163866	          0.00000000	          7.19940143	          0.00000000	
          5.96000000	          1.01688661	         -0.88109992	          0.37794995	          0.00000000	          0.00000000	          0.00000000	          0.00000000	         -0.64401260	          0.00000000	        -71.56109224	        821.61735138	         57.78412133	          0.16780239	          0.00000000	         -0.98254731	          0.00000000	          5.63725543	          0.00000000	
          5.98000000	          0.35931258	         -0.26400422	          0.12999893	          0.00000000	          0.00000000	          0.00000000	          0.00000000	         -0.22712156	          0.00000000	        -48.20721499	        832.43148018	         23.06873261	          0.16907718	          0.00000000	         -0.98394193	          0.00000000	          6.74923127	          0.00000000	
